[{"OBJECT_NAME":"STARLINK-1300","OBJECT_ID":"2020-019Q","EPOCH":"2026-03-10T00:00:02.999808","MEAN_MOTION":15.2932329,"ECCENTRICITY":9.061e-5,"INCLINATION":53.155,"RA_OF_ASC_NODE":163.7958,"ARG_OF_PERICENTER":78.2893,"MEAN_ANOMALY":201.7903,"EPHEMERIS_TYPE":0,"CLASSIFICATION_TYPE":"U","NORAD_CAT_ID":45374,"ELEMENT_SET_NO":999,"REV_AT_EPOCH":569,"BSTAR":0.00056718198,"MEAN_MOTION_DOT":0.0001603,"MEAN_MOTION_DDOT":0},{"OBJECT_NAME":"NETSAT-1","OBJECT_ID":"2020-068W","EPOCH":"2026-03-09T22:42:38.711232","MEAN_MOTION":15.32042482,"ECCENTRICITY":0.00057337,"INCLINATION":97.8751,"RA_OF_ASC_NODE":63.2583,"ARG_OF_PERICENTER":18.5877,"MEAN_ANOMALY":341.5572,"EPHEMERIS_TYPE":0,"CLASSIFICATION_TYPE":"U","NORAD_CAT_ID":46506,"ELEMENT_SET_NO":999,"REV_AT_EPOCH":30009,"BSTAR":0.00059222329,"MEAN_MOTION_DOT":0.00018269,"MEAN_MOTION_DDOT":0}]
